NORAD_CAT_ID,OBJECT_NAME,OBJECT_TYPE,EPOCH,MEAN_MOTION,ECCENTRICITY,INCLINATION,RA_OF_ASC_NODE,ARG_OF_PERICENTER,MEAN_ANOMALY,BSTAR,MEAN_MOTION_DOT,MEAN_MOTION_DDOT,TLE_LINE0,TLE_LINE1,TLE_LINE2,SEMIMAJOR_AXIS,PERIOD,APOGEE,PERIGEE,DECAYED
52539.0,STARLINK-3757,PAYLOAD,2022-07-29 22:00:00,15.08834046,0.0001828,53.2182,289.3309,37.2119,275.2106,-0.0018989999999999,-0.00030379,0.0,0 STARLINK-3757,1 52539U 22051G   22210.91667824 -.00030379  00000-0 -18990-2 0  9997,2 52539  53.2182 289.3309 0001828  37.2119 275.2106 15.08834046  1309,6917.899,95.438,541.028,538.499,0.0
52539.0,STARLINK-3757,PAYLOAD,2022-07-30 14:00:01,15.08812082,0.0001973,53.2179,286.3398,37.2891,298.2907,0.0014337999999999,0.00022587,0.0,0 STARLINK-3757,1 52539U 22051G   22211.58334491  .00022587  00000-0  14338-2 0  9994,2 52539  53.2179 286.3398 0001973  37.2891 298.2907 15.08812082  1308,6917.965999999999,95.439,541.196,538.466,0.0
52539.0,STARLINK-3757,PAYLOAD,2022-07-30 22:00:00,15.08837508,0.0001855999999999,53.2175,284.8422,38.3348,308.8168,-0.001515,-0.00024317,0.0,0 STARLINK-3757,1 52539U 22051G   22211.91667824 -.00024317  00000-0 -15150-2 0  9998,2 52539  53.2175 284.8422 0001856  38.3348 308.8168 15.08837508  1301,6917.888000000001,95.438,541.0369999999998,538.469,0.0
52539.0,STARLINK-3757,PAYLOAD,2022-07-31 14:00:01,15.08815529,0.0002029999999999,53.2173,281.851,37.5488,332.7747,0.0018127,0.0002866,0.0,0 STARLINK-3757,1 52539U 22051G   22212.58334491  .00028660  00000-0  18127-2 0  9993,2 52539  53.2173 281.8510 0002030  37.5488 332.7747 15.08815529 12675,6917.955,95.439,541.225,538.4159999999998,0.0
52539.0,STARLINK-3757,PAYLOAD,2022-07-31 22:00:00,15.08840902,0.0001911999999999,53.217,280.3531,38.8862,343.0184,-0.0010317,-0.00016671,0.0,0 STARLINK-3757,1 52539U 22051G   22212.91667824 -.00016671  00000-0 -10317-2 0  9993,2 52539  53.2170 280.3531 0001912  38.8862 343.0184 15.08840902  1308,6917.878000000002,95.437,541.065,538.42,0.0
52539.0,STARLINK-3757,PAYLOAD,2022-08-01 14:00:01,15.08821758,0.0002114,53.2171,277.3618,37.5736,7.522,0.0022925999999999,0.0003637,0.0,0 STARLINK-3757,1 52539U 22051G   22213.58334491  .00036370  00000-0  22926-2 0  9993,2 52539  53.2171 277.3618 0002114  37.5736   7.5220 15.08821758  1303,6917.936,95.439,541.264,538.339,0.0
52539.0,STARLINK-3757,PAYLOAD,2022-08-01 22:00:00,15.08846288,0.0001986999999999,53.2171,275.8637,39.3296,17.3585,-0.00048055,-7.929e-05,0.0,0 STARLINK-3757,1 52539U 22051G   22213.91667824 -.00007929  00000-0 -48055-3 0  9991,2 52539  53.2171 275.8637 0001987  39.3296  17.3585 15.08846288  1303,6917.861,95.437,541.101,538.352,0.0
52539.0,STARLINK-3757,PAYLOAD,2022-08-02 06:00:02,15.08861817,0.0002017,53.2172,274.3673,41.9222,26.4228,-0.00093271,-0.00015111,0.0,0 STARLINK-3757,1 52539U 22051G   22214.25002315 -.00015111  00000-0 -93271-3 0  9999,2 52539  53.2172 274.3673 0002017  41.9222  26.4228 15.08861817 12921,6917.814,95.436,541.0740000000002,538.283,0.0
52539.0,STARLINK-3757,PAYLOAD,2022-08-02 14:00:01,15.08828285,0.0002205,53.2173,272.8724,37.6114,42.2887,0.002642,0.00041997,0.0,0 STARLINK-3757,1 52539U 22051G   22214.58334491  .00041997  00000-0  26420-2 0  9998,2 52539  53.2173 272.8724 0002205  37.6114  42.2887 15.08828285  1302,6917.916,95.438,541.307,538.256,0.0
52539.0,STARLINK-3757,PAYLOAD,2022-08-03 06:00:00,15.08874506,0.0002089999999999,53.2176,269.8779,41.8085,61.2999,-0.0015496,-0.00024889,0.0,0 STARLINK-3757,1 52539U 22051G   22215.25001157 -.00024889  00000-0 -15496-2 0  9997,2 52539  53.2176 269.8779 0002090  41.8085  61.2999 15.08874506 13076,6917.775,95.435,541.086,538.194,0.0
52539.0,STARLINK-3757,PAYLOAD,2022-08-03 14:00:01,15.08834435,0.0002226,53.2176,268.383,36.339,78.4017,0.00067869,0.00010528,0.0,0 STARLINK-3757,1 52539U 22051G   22215.58334491  .00010528  00000-0  67869-3 0  9998,2 52539  53.2176 268.3830 0002226  36.3390  78.4017 15.08834435  1308,6917.897,95.438,541.302,538.222,0.0
52539.0,STARLINK-3757,PAYLOAD,2022-08-03 22:00:01,15.08830335,0.0002026999999999,53.2179,266.8849,38.3256,88.0778,0.00058233,8.989e-05,0.0,0 STARLINK-3757,1 52539U 22051G   22215.91668981  .00008989  00000-0  58233-3 0  9992,2 52539  53.2179 266.8849 0002027  38.3256  88.0778 15.08830335  1302,6917.91,95.438,541.177,538.373,0.0
52539.0,STARLINK-3757,PAYLOAD,2022-08-04 14:00:01,15.08819196,0.0002245,53.2179,263.8937,35.9439,113.5877,0.0029502,0.00046951,0.0,0 STARLINK-3757,1 52539U 22051G   22216.58334491  .00046951  00000-0  29502-2 0  9999,2 52539  53.2179 263.8937 0002245  35.9439 113.5877 15.08819196 13270,6917.944,95.439,541.362,538.256,0.0
52539.0,STARLINK-3757,PAYLOAD,2022-08-04 22:00:00,15.08833457,0.0002037,53.218,262.3956,39.2027,121.9246,0.0010138999999999,0.00015882,0.0,0 STARLINK-3757,1 52539U 22051G   22216.91667824  .00015882  00000-0  10139-2 0  9990,2 52539  53.2180 262.3956 0002037  39.2027 121.9246 15.08833457  1306,6917.9,95.438,541.175,538.356,0.0
52539.0,STARLINK-3757,PAYLOAD,2022-08-05 06:00:02,15.08845602,0.0002008,53.2182,260.8998,40.5498,132.2061,-0.0016801,-0.00026932,0.0,0 STARLINK-3757,1 52539U 22051G   22217.25002315 -.00026932  00000-0 -16801-2 0  9998,2 52539  53.2182 260.8998 0002008  40.5498 132.2061 15.08845602 13377,6917.863,95.437,541.117,538.339,0.0
52539.0,STARLINK-3757,PAYLOAD,2022-08-05 14:00:01,15.08809858,0.0002177,53.2178,259.4046,36.23,148.1205,0.0027311999999999,0.00043412,0.0,0 STARLINK-3757,1 52539U 22051G   22217.58335648  .00043412  00000-0  27312-2 0  9991,2 52539  53.2178 259.4046 0002177  36.2300 148.1205 15.08809858  1300,6917.973000000001,95.439,541.344,538.331,0.0
52539.0,STARLINK-3757,PAYLOAD,2022-08-05 22:00:00,15.08818804,0.0001966,53.2178,257.9067,40.0064,155.8663,0.0015115,0.00023836,0.0,0 STARLINK-3757,1 52539U 22051G   22217.91667824  .00023836  00000-0  15115-2 0  9998,2 52539  53.2178 257.9067 0001966  40.0064 155.8663 15.08818804  1305,6917.945,95.439,541.17,538.45,0.0
52539.0,STARLINK-3757,PAYLOAD,2022-08-06 00:00:02,15.08810988,0.0001954,53.2177,257.5323,41.6832,247.1506,0.0028184,0.00044817,0.0,0 STARLINK-3757,1 52539U 22051G   22218.00002315  .00044817  00000-0  28184-2 0  9999,2 52539  53.2177 257.5323 0001954  41.6832 247.1506 15.08810988 13491,6917.969,95.439,541.186,538.482,0.0
52539.0,STARLINK-3757,PAYLOAD,2022-08-06 11:26:37,15.08834387,0.0002139,53.2185,255.3937,42.6503,317.4655,-1.4114e-05,-5.13e-06,0.0,0 STARLINK-3757,1 52539U 22051G   22218.47682299 -.00000513  00000-0 -14114-4 0  9992,2 52539  53.2185 255.3937 0002139  42.6503 317.4655 15.08834387 13562,6917.898,95.438,541.242,538.283,0.0
52539.0,STARLINK-3757,PAYLOAD,2022-08-06 22:00:00,15.0881978,0.0001996999999999,53.2173,253.4179,41.6694,188.9709,0.0018969999999999,0.00030015,0.0,0 STARLINK-3757,1 52539U 22051G   22218.91667824  .00030015  00000-0  18970-2 0  9998,2 52539  53.2173 253.4179 0001997  41.6694 188.9709 15.08819780  1307,6917.941999999999,95.439,541.189,538.4259999999998,0.0
52539.0,STARLINK-3757,PAYLOAD,2022-08-07 11:17:24,15.08834791,0.0002156,53.218,250.9325,41.0082,319.1072,5.9477e-05,6.58e-06,0.0,0 STARLINK-3757,1 52539U 22051G   22219.47042341  .00000658  00000-0  59477-4 0  9990,2 52539  53.2180 250.9325 0002156  41.0082 319.1072 15.08834791 13643,6917.896,95.438,541.253,538.27,0.0
52539.0,STARLINK-3757,PAYLOAD,2022-08-07 22:00:00,15.08822395,0.0002065,53.2168,248.929,42.9844,222.4397,0.0023593,0.00037442,0.0,0 STARLINK-3757,1 52539U 22051G   22219.91667824  .00037442  00000-0  23593-2 0  9997,2 52539  53.2168 248.9290 0002065  42.9844 222.4397 15.08822395  1305,6917.934,95.439,541.2280000000002,538.371,0.0
52539.0,STARLINK-3757,PAYLOAD,2022-08-08 14:00:01,15.08844871,0.0002292,53.2163,245.9381,39.3291,249.3608,0.0014484,0.00022842,0.0,0 STARLINK-3757,1 52539U 22051G   22220.58335648  .00022842  00000-0  14484-2 0  9995,2 52539  53.2163 245.9381 0002292  39.3291 249.3608 15.08844871  1302,6917.866,95.437,541.316,538.145,0.0
52539.0,STARLINK-3757,PAYLOAD,2022-08-08 22:00:00,15.08844883,0.0002106,53.2164,244.4399,42.9105,257.3368,5.9964e-05,6.66e-06,0.0,0 STARLINK-3757,1 52539U 22051G   22220.91667824  .00000666  00000-0  59964-4 0  9990,2 52539  53.2164 244.4399 0002106  42.9105 257.3368 15.08844883  1309,6917.865,95.437,541.187,538.274,0.0
52539.0,STARLINK-3757,PAYLOAD,2022-08-09 06:00:00,15.08848792,0.0002209,53.2164,242.9447,41.4453,270.4021,-0.0014548,-0.00023373,0.0,0 STARLINK-3757,1 52539U 22051G   22221.25001157 -.00023373  00000-0 -14548-2 0  9998,2 52539  53.2164 242.9447 0002209  41.4453 270.4021 15.08848792 13982,6917.854,95.437,541.247,538.19,0.0
52539.0,STARLINK-3757,PAYLOAD,2022-08-09 14:00:01,15.08845555,0.000229,53.2161,241.4489,37.0959,286.3395,-0.0016602,-0.00026618,0.0,0 STARLINK-3757,1 52539U 22051G   22221.58334491 -.00026618  00000-0 -16602-2 0  9992,2 52539  53.2161 241.4489 0002290  37.0959 286.3395 15.08845555  1308,6917.863,95.437,541.313,538.144,0.0
52539.0,STARLINK-3757,PAYLOAD,2022-08-09 22:00:00,15.08790007,0.0002095,53.2163,239.9508,40.4631,294.5766,0.0030711,0.00048861,0.0,0 STARLINK-3757,1 52539U 22051G   22221.91667824  .00048861  00000-0  30711-2 0  9997,2 52539  53.2163 239.9508 0002095  40.4631 294.5766 15.08790007  1306,6918.033,95.441,541.3480000000002,538.4490000000002,0.0
52539.0,STARLINK-3757,PAYLOAD,2022-08-10 06:00:00,15.08831628,0.0002268,53.2164,238.4556,39.931,306.6628,-0.001578,-0.0002531,0.0,0 STARLINK-3757,1 52539U 22051G   22222.25001157 -.00025310  00000-0 -15780-2 0  9991,2 52539  53.2164 238.4556 0002268  39.9310 306.6628 15.08831628 14135,6917.906,95.438,541.34,538.202,0.0
52539.0,STARLINK-3757,PAYLOAD,2022-08-10 14:00:01,15.08822396,0.000236,53.2161,236.9597,37.0516,321.1124,0.00017611,2.514e-05,0.0,0 STARLINK-3757,1 52539U 22051G   22222.58334491  .00002514  00000-0  17611-3 0  9992,2 52539  53.2161 236.9597 0002360  37.0516 321.1124 15.08822396  1300,6917.934,95.439,541.432,538.1669999999998,0.0
